IRIDIUM 159             
1 43578U 18061K   25060.59428603  .00000010  00000+0 -36516-5 0  9990
2 43578  86.3918 254.1556 0001826  96.1323 264.0081 14.34217654345643
IRIDIUM 180             
1 43922U 19002A   25060.45424770  .00000175  00000+0  55343-4 0  9994
2 43922  86.4032 191.1381 0002127  97.4874 262.6563 14.34217636321238
IRIDIUM 176             
1 43923U 19002B   25060.44359556  .00002421  00000+0  37988-3 0  9993
2 43923  86.6158 191.1440 0002272 113.3465 246.7991 14.72269805329694
IRIDIUM 168             
1 43924U 19002C   25060.44790477  .00000017  00000+0 -85511-6 0  9993
2 43924  86.4034 191.2047 0002034  99.3505 260.7921 14.34216614321211
IRIDIUM 173             
1 43925U 19002D   25060.43521921  .00000221  00000+0  71925-4 0  9997
2 43925  86.4026 191.1182 0002238  96.4650 263.6801 14.34216852321197
IRIDIUM 169             
1 43926U 19002E   25060.48194547  .00000693  00000+0  22023-3 0  9990
2 43926  86.4224 222.6793 0003636  88.6810 271.4804 14.38599123322268
IRIDIUM 172             
1 43927U 19002F   25060.35910647  .00000671  00000+0  23262-3 0  9996
2 43927  86.4030 191.1563 0002088 100.8233 259.3198 14.34216262321193
IRIDIUM 175             
1 43928U 19002G   25060.23443401  .00002570  00000+0  40346-3 0  9995
2 43928  86.1552 149.9229 0002878  78.9630 281.1910 14.72257222329650
